[{"OBJECT_NAME":"STARLINK-32604","OBJECT_ID":"2024-217P","EPOCH":"2026-03-09T15:55:50.488320","MEAN_MOTION":15.30198031,"ECCENTRICITY":0.00012994,"INCLINATION":53.161,"RA_OF_ASC_NODE":194.2832,"ARG_OF_PERICENTER":91.7768,"MEAN_ANOMALY":268.3382,"EPHEMERIS_TYPE":0,"CLASSIFICATION_TYPE":"U","NORAD_CAT_ID":62070,"ELEMENT_SET_NO":999,"REV_AT_EPOCH":7341,"BSTAR":0.0015061192,"MEAN_MOTION_DOT":0.00044513,"MEAN_MOTION_DDOT":0},{"OBJECT_NAME":"239ALFEROV (RS61S)","OBJECT_ID":"2025-155F","EPOCH":"2026-03-09T21:46:33.382848","MEAN_MOTION":15.29933217,"ECCENTRICITY":0.00084878,"INCLINATION":97.4469,"RA_OF_ASC_NODE":37.6373,"ARG_OF_PERICENTER":151.5904,"MEAN_ANOMALY":208.58,"EPHEMERIS_TYPE":0,"CLASSIFICATION_TYPE":"U","NORAD_CAT_ID":64881,"ELEMENT_SET_NO":999,"REV_AT_EPOCH":6561,"BSTAR":0.00067233359,"MEAN_MOTION_DOT":0.00019457,"MEAN_MOTION_DDOT":0}]
